stk.v.4.3 

BEGIN Ephemeris 
 
NumberOfEphemerisPoints		146 
ScenarioEpoch	    1 Sep 2020 16:11:30.089182556 
InterpolationMethod		Lagrange 
InterpolationOrder		5 
CentralBody				Earth 
CoordinateSystem			TEME 
CoordinateSystemEpoch	  1 Sep 2020 16:11:30.089182556 
DistanceUnit			Kilometers 
 
EphemerisTimePosVel 
 
       0.00000000   -5454.37981216   -4636.40033502       0.03767809  0.310560384 -0.351007289  7.448949044
 END Ephemeris 
